[{"OBJECT_NAME":"MDQUBESAT-2","OBJECT_ID":"2023-185P","EPOCH":"2026-03-09T22:55:20.181216","MEAN_MOTION":15.58445161,"ECCENTRICITY":0.00075381,"INCLINATION":97.5425,"RA_OF_ASC_NODE":156.0719,"ARG_OF_PERICENTER":237.8799,"MEAN_ANOMALY":122.1726,"EPHEMERIS_TYPE":0,"CLASSIFICATION_TYPE":"U","NORAD_CAT_ID":58665,"ELEMENT_SET_NO":999,"REV_AT_EPOCH":12232,"BSTAR":0.0018049813,"MEAN_MOTION_DOT":0.00139688,"MEAN_MOTION_DDOT":0},{"OBJECT_NAME":"STARLINK-36636","OBJECT_ID":"2026-018Y","EPOCH":"2026-03-09T22:00:01.999584","MEAN_MOTION":15.64464953,"ECCENTRICITY":0.00019144,"INCLINATION":97.2844,"RA_OF_ASC_NODE":134.7932,"ARG_OF_PERICENTER":72.5464,"MEAN_ANOMALY":54.5572,"EPHEMERIS_TYPE":0,"CLASSIFICATION_TYPE":"U","NORAD_CAT_ID":67611,"ELEMENT_SET_NO":999,"REV_AT_EPOCH":604,"BSTAR":-0.023080936,"MEAN_MOTION_DOT":-0.01954126,"MEAN_MOTION_DDOT":0}]
